OBJECT_NAME,OBJECT_ID,EPOCH,MEAN_MOTION,ECCENTRICITY,INCLINATION,RA_OF_ASC_NODE,ARG_OF_PERICENTER,MEAN_ANOMALY,EPHEMERIS_TYPE,CLASSIFICATION_TYPE,NORAD_CAT_ID,ELEMENT_SET_NO,REV_AT_EPOCH,BSTAR,MEAN_MOTION_DOT,MEAN_MOTION_DDOT
GSAT-7,2013-044B,2026-06-08T19:57:13.139712,1.00270674,.0003022,0.0619,100.1909,189.2136,341.1102,0,U,39234,999,4517,0,-.6E-6,0
AMOS-4,2013-045A,2026-06-08T20:39:13.724064,1.00271391,.0002579,0.0332,91.7427,324.4179,215.8900,0,U,39237,999,4687,0,.24E-6,0
AEHF-3 (USA 246),2013-050A,2026-06-08T12:44:41.271072,1.00270436,.0087791,5.2733,67.2619,188.0742,68.4723,0,U,39256,999,4556,0,.45E-6,0
ASTRA 2E,2013-056A,2026-06-08T17:49:44.177952,1.00274017,.0002694,0.0664,322.9409,124.0179,106.1239,0,U,39285,999,4633,0,.167E-5,0
FM-6,2013-058A,2026-06-08T15:06:37.024416,1.00255605,.0002771,0.0107,82.6412,69.5183,215.1325,0,U,39360,999,4598,0,.3E-7,0
RADUGA-1M 3,2013-062A,2026-06-08T20:15:50.944032,1.00272222,.0001477,5.9357,72.4578,268.5905,255.1261,0,U,39375,999,4602,0,.168E-5,0
SES-8,2013-071A,2026-06-08T20:30:00.000288,1.00271632,.0002882,0.0288,269.5657,174.8442,215.3358,0,U,39460,999,4434,0,-.253E-5,0
INMARSAT 5-F1,2013-073A,2026-06-08T20:35:17.090016,1.00267348,.0000296,0.0188,3.6211,284.4336,340.6320,0,U,39476,999,4549,0,.45E-6,0
TKSAT-1 (TUPAC KATARI),2013-075A,2026-06-08T14:40:44.143392,1.00272213,.0002595,0.0374,164.2486,264.1161,321.6378,0,U,39481,999,4551,0,-.179E-5,0
EXPRESS-AM5,2013-077A,2026-06-08T19:10:54.871680,1.00272967,.000051,0.0130,288.2714,83.6383,313.0502,0,U,39487,999,4627,0,-.263E-5,0
GSAT-14,2014-001A,2026-06-08T19:57:13.182048,1.00269414,.000097,0.0117,359.4559,286.4777,344.5784,0,U,39498,999,4529,0,0,0
THAICOM 6,2014-002A,2026-06-08T18:53:21.609888,1.00269626,.0004533,0.0833,105.4422,358.4019,155.1624,0,U,39500,999,4537,0,-.104E-5,0
TDRS 12,2014-004A,2026-06-08T11:28:36.135264,1.00270201,.00027937,3.9682,18.9354,197.5884,171.6014,0,U,39504,999,4419,0,-.256E-5,0
ABS-2,2014-006A,2026-06-08T18:52:21.706176,1.00271465,.00041,0.0309,75.0440,349.3653,190.7844,0,U,39508,999,4519,0,-.7E-6,0
ATHENA-FIDUS,2014-006B,2026-06-08T18:45:46.796832,1.00270829,.000144,0.0428,102.2977,350.8496,123.2646,0,U,39509,999,4500,0,.17E-5,0
TURKSAT 4A,2014-007A,2026-06-08T18:42:52.616160,1.00270349,.0001406,0.0534,293.9533,32.8171,253.1097,0,U,39522,999,4488,0,.162E-5,0
EXPRESS-AT1,2014-010A,2026-06-08T22:01:33.555072,1.00302102,.0003912,0.2351,85.7539,35.3033,168.0414,0,U,39612,999,4473,0,.49E-6,0
EXPRESS-AT2,2014-010B,2026-06-08T20:46:20.959968,1.00274341,.0000739,0.0160,301.9072,72.0583,250.8804,0,U,39613,999,4441,0,.94E-6,0
AMAZONAS 4A,2014-011A,2026-06-08T13:01:49.755936,1.00273288,.00038349,0.0649,202.6301,262.7026,273.0552,0,U,39616,999,4462,0,-.237E-5,0
ASTRA 5B,2014-011B,2026-06-08T17:16:58.388736,1.00270153,.0002076,0.0557,319.2795,105.9688,114.6004,0,U,39617,999,4458,0,.153E-5,0
IRNSS-1B,2014-017A,2026-05-19T20:39:38.653920,1.00280229,.00242269,28.9733,240.8911,185.2284,176.5740,0,U,39635,999,4451,0,.103E-5,0
LUCH-5V,2014-023A,2026-06-08T18:57:53.800992,1.00267457,.0002817,5.1118,69.8346,32.5615,173.9299,0,U,39727,999,4427,0,-.252E-5,0
KAZSAT-3,2014-023B,2026-06-08T20:31:24.629088,1.00271873,.0000265,0.0233,45.0064,357.9573,220.6219,0,U,39728,999,4237,0,.77E-6,0
EUTELSAT 3B,2014-030A,2026-06-08T18:31:53.416992,1.00272595,.000398,0.0609,356.2861,82.3455,99.6048,0,U,39773,999,4398,0,.36E-6,0
ASIASAT 8 (AMOS-7),2014-046A,2026-06-08T19:54:46.303776,1.00271086,.0001473,0.0153,311.5632,126.2731,223.3999,0,U,40107,999,10206,0,-.317E-5,0
ASIASAT 6,2014-052A,2026-06-08T20:47:50.284608,1.00268594,.0000713,0.0186,345.9880,114.2204,228.9147,0,U,40141,999,4299,0,0,0
OPTUS 10,2014-054A,2026-06-08T17:32:48.571872,1.00270298,.0001996,0.0993,317.0507,120.5488,238.7161,0,U,40146,999,4294,0,-.131E-5,0
MEASAT-3B,2014-054B,2026-06-08T18:42:21.811104,1.00272482,.0003136,0.0472,46.7532,21.1757,201.3207,0,U,40147,999,4282,0,-.225E-5,0
HIMAWARI-8,2014-060A,2026-06-08T20:10:00.000192,1.00270961,.0000818,0.0136,319.3355,138.5674,242.4936,0,U,40267,999,4267,0,-.259E-5,0
IRNSS-1C,2014-061A,2026-06-08T20:24:34.856352,1.00270647,.0022645,6.4974,89.0865,1.4878,195.8228,0,U,40269,999,4260,0,-.145E-5,0
INTELSAT 30 (IS-30),2014-062A,2026-06-08T14:38:21.870240,1.00267785,.0001038,0.0207,37.6201,351.9550,351.9176,0,U,40271,999,670,0,-.134E-5,0
ARSAT 1,2014-062B,2026-06-08T13:02:27.197376,1.00269902,.00018219,0.0452,66.9548,7.7018,306.0869,0,U,40272,999,4253,0,-.244E-5,0
