GSAT-7                  
1 39234U 13044B   26159.83140208 -.00000060  00000+0  00000+0 0  9997
2 39234   0.0619 100.1909 0003022 189.2136 341.1102  1.00270674 45172
AMOS-4                  
1 39237U 13045A   26159.86057551  .00000024  00000+0  00000+0 0  9991
2 39237   0.0332  91.7427 0002579 324.4179 215.8900  1.00271391 46871
AEHF-3 (USA 246)        
1 39256U 13050A   26159.53103323  .00000045  00000+0  00000+0 0  9994
2 39256   5.2733  67.2619 0087791 188.0742  68.4723  1.00270436 45563
ASTRA 2E                
1 39285U 13056A   26159.74287243  .00000167  00000+0  00000+0 0  9994
2 39285   0.0664 322.9409 0002694 124.0179 106.1239  1.00274017 46339
FM-6                    
1 39360U 13058A   26159.62959519  .00000003  00000+0  00000+0 0  9998
2 39360   0.0107  82.6412 0002771  69.5183 215.1325  1.00255605 45982
RADUGA-1M 3             
1 39375U 13062A   26159.84433963  .00000168  00000+0  00000+0 0  9995
2 39375   5.9357  72.4578 0001477 268.5905 255.1261  1.00272222 46027
SES-8                   
1 39460U 13071A   26159.85416667 -.00000253  00000+0  00000+0 0  9999
2 39460   0.0288 269.5657 0002882 174.8442 215.3358  1.00271632 44346
INMARSAT 5-F1           
1 39476U 13073A   26159.85783669  .00000045  00000+0  00000+0 0  9995
2 39476   0.0188   3.6211 0000296 284.4336 340.6320  1.00267348 45499
TKSAT-1 (TUPAC KATARI)  
1 39481U 13075A   26159.61162203 -.00000179  00000+0  00000+0 0  9991
2 39481   0.0374 164.2486 0002595 264.1161 321.6378  1.00272213 45517
EXPRESS-AM5             
1 39487U 13077A   26159.79924620 -.00000263  00000+0  00000+0 0  9991
2 39487   0.0130 288.2714 0000510  83.6383 313.0502  1.00272967 46273
GSAT-14                 
1 39498U 14001A   26159.83140257  .00000000  00000+0  00000+0 0  9990
2 39498   0.0117 359.4559 0000970 286.4777 344.5784  1.00269414 45293
THAICOM 6               
1 39500U 14002A   26159.78705567 -.00000104  00000+0  00000+0 0  9996
2 39500   0.0833 105.4422 0004533 358.4019 155.1624  1.00269626 45371
TDRS 12                 
1 39504U 14004A   26159.47819601 -.00000256  00000+0  00000+0 0  9991
2 39504   3.9682  18.9354 0002793 197.5884 171.6014  1.00270201 44195
ABS-2                   
1 39508U 14006A   26159.78636234 -.00000070  00000+0  00000+0 0  9994
2 39508   0.0309  75.0440 0004100 349.3653 190.7844  1.00271465 45195
ATHENA-FIDUS            
1 39509U 14006B   26159.78179163  .00000170  00000+0  00000+0 0  9998
2 39509   0.0428 102.2977 0001440 350.8496 123.2646  1.00270829 45006
TURKSAT 4A              
1 39522U 14007A   26159.77977565  .00000162  00000+0  00000+0 0  9996
2 39522   0.0534 293.9533 0001406  32.8171 253.1097  1.00270349 44889
EXPRESS-AT1             
1 39612U 14010A   26159.91774948  .00000049  00000+0  00000+0 0  9990
2 39612   0.2351  85.7539 0003912  35.3033 168.0414  1.00302102 44734
EXPRESS-AT2             
1 39613U 14010B   26159.86552037  .00000094  00000+0  00000+0 0  9998
2 39613   0.0160 301.9072 0000739  72.0583 250.8804  1.00274341 44419
AMAZONAS 4A             
1 39616U 14011A   26159.54293699 -.00000237  00000+0  00000+0 0  9993
2 39616   0.0649 202.6301 0003834 262.7026 273.0552  1.00273288 44624
ASTRA 5B                
1 39617U 14011B   26159.72012024  .00000153  00000+0  00000+0 0  9991
2 39617   0.0557 319.2795 0002076 105.9688 114.6004  1.00270153 44589
IRNSS-1B                
1 39635U 14017A   26139.86086405  .00000103  00000+0  00000+0 0  9999
2 39635  28.9733 240.8911 0024226 185.2284 176.5740  1.00280229 44519
LUCH-5V                 
1 39727U 14023A   26159.79020603 -.00000252  00000+0  00000+0 0  9996
2 39727   5.1118  69.8346 0002817  32.5615 173.9299  1.00267457 44271
KAZSAT-3                
1 39728U 14023B   26159.85514617  .00000077  00000+0  00000+0 0  9991
2 39728   0.0233  45.0064 0000265 357.9573 220.6219  1.00271873 42377
EUTELSAT 3B             
1 39773U 14030A   26159.77214603  .00000036  00000+0  00000+0 0  9997
2 39773   0.0609 356.2861 0003980  82.3455  99.6048  1.00272595 43985
ASIASAT 8 (AMOS-7)      
1 40107U 14046A   26159.82970259 -.00000317  00000+0  00000+0 0  9992
2 40107   0.0153 311.5632 0001473 126.2731 223.3999  1.00271086102062
ASIASAT 6               
1 40141U 14052A   26159.86655422  .00000000  00000+0  00000+0 0  9991
2 40141   0.0186 345.9880 0000713 114.2204 228.9147  1.00268594 42991
OPTUS 10                
1 40146U 14054A   26159.73111773 -.00000131  00000+0  00000+0 0  9996
2 40146   0.0993 317.0507 0001996 120.5488 238.7161  1.00270298 42940
MEASAT-3B               
1 40147U 14054B   26159.77941911 -.00000225  00000+0  00000+0 0  9990
2 40147   0.0472  46.7532 0003136  21.1757 201.3207  1.00272482 42821
HIMAWARI-8              
1 40267U 14060A   26159.84027778 -.00000259  00000+0  00000+0 0  9991
2 40267   0.0136 319.3355 0000818 138.5674 242.4936  1.00270961 42676
IRNSS-1C                
1 40269U 14061A   26159.85040343 -.00000145  00000+0  00000+0 0  9992
2 40269   6.4974  89.0865 0022645   1.4878 195.8228  1.00270647 42600
INTELSAT 30 (IS-30)     
1 40271U 14062A   26159.60997535 -.00000134  00000+0  00000+0 0  9991
2 40271   0.0207  37.6201 0001038 351.9550 351.9176  1.00267785  6705
ARSAT 1                 
1 40272U 14062B   26159.54337034 -.00000244  00000+0  00000+0 0  9999
2 40272   0.0452  66.9548 0001821   7.7018 306.0869  1.00269902 42536
